{
  "type": "FeatureCollection",
  "features": [
    {
      "type": "Feature",
      "properties": {
        "norad_id": 34036,
        "name": "COSMOS 2251 DEB",
        "group": "cosmos-2251-debris",
        "lat": -6.717935108935468,
        "lon": 122.99443679072843,
        "alt_km": 589.5286675925126,
        "timestamp": "2025-12-24T18:55:56.465385+00:00",
        "meta_object_name": "COSMOS 2251 DEB",
        "meta_object_id": "1993-036HX",
        "meta_epoch": "2025-12-24T02:54:45.641376",
        "meta_mean_motion": 14.95850479,
        "meta_eccentricity": 0.00098838,
        "meta_inclination": 74.0199,
        "meta_ra_of_asc_node": 126.2774,
        "meta_arg_of_pericenter": 154.5992,
        "meta_mean_anomaly": 205.568,
        "meta_ephemeris_type": 0,
        "meta_classification_type": "U",
        "meta_norad_cat_id": 34036,
        "meta_element_set_no": 999,
        "meta_rev_at_epoch": 88740,
        "meta_bstar": 0.0039066339,
        "meta_mean_motion_dot": 0.00043945,
        "meta_mean_motion_ddot": 0,
        "tle_line1": "1 34036U 93036HX  25358.12136159  .00043945  00000+0  39066-2 0  9998",
        "tle_line2": "2 34036  74.0199 126.2774 0009883 154.5992 205.5680 14.95850479887405"
      },
      "geometry": {
        "type": "Point",
        "coordinates": [
          122.99443679072843,
          -6.717935108935468
        ]
      }
    },
    {
      "type": "Feature",
      "properties": {
        "norad_id": 34037,
        "name": "COSMOS 2251 DEB",
        "group": "cosmos-2251-debris",
        "lat": -56.862581705612556,
        "lon": 2.4105442896650895,
        "alt_km": 809.0077934388128,
        "timestamp": "2025-12-24T18:55:56.465395+00:00",
        "meta_object_name": "COSMOS 2251 DEB",
        "meta_object_id": "1993-036HY",
        "meta_epoch": "2025-12-24T04:09:12.021984",
        "meta_mean_motion": 14.3469283,
        "meta_eccentricity": 0.00518111,
        "meta_inclination": 74.051,
        "meta_ra_of_asc_node": 29.5165,
        "meta_arg_of_pericenter": 75.9578,
        "meta_mean_anomaly": 284.7326,
        "meta_ephemeris_type": 0,
        "meta_classification_type": "U",
        "meta_norad_cat_id": 34037,
        "meta_element_set_no": 999,
        "meta_rev_at_epoch": 87881,
        "meta_bstar": 0.00041005158,
        "meta_mean_motion_dot": 1.153e-05,
        "meta_mean_motion_ddot": 0,
        "tle_line1": "1 34037U 93036HY  25358.17305581  .00001153  00000+0  41005-3 0  9993",
        "tle_line2": "2 34037  74.0510  29.5165 0051811  75.9578 284.7326 14.34692830878815"
      },
      "geometry": {
        "type": "Point",
        "coordinates": [
          2.4105442896650895,
          -56.862581705612556
        ]
      }
    },
    {
      "type": "Feature",
      "properties": {
        "norad_id": 34040,
        "name": "COSMOS 2251 DEB",
        "group": "cosmos-2251-debris",
        "lat": -15.011991262695867,
        "lon": -129.62006124853994,
        "alt_km": 1248.9708557277554,
        "timestamp": "2025-12-24T18:55:56.465406+00:00",
        "meta_object_name": "COSMOS 2251 DEB",
        "meta_object_id": "1993-036JB",
        "meta_epoch": "2025-12-23T06:52:57.728064",
        "meta_mean_motion": 13.68391604,
        "meta_eccentricity": 0.03433961,
        "meta_inclination": 73.9556,
        "meta_ra_of_asc_node": 48.4352,
        "meta_arg_of_pericenter": 359.6695,
        "meta_mean_anomaly": 0.414,
        "meta_ephemeris_type": 0,
        "meta_classification_type": "U",
        "meta_norad_cat_id": 34040,
        "meta_element_set_no": 999,
        "meta_rev_at_epoch": 83744,
        "meta_bstar": 0.00069489491,
        "meta_mean_motion_dot": 8.74e-06,
        "meta_mean_motion_ddot": 0,
        "tle_line1": "1 34040U 93036JB  25357.28677926  .00000874  00000+0  69489-3 0  9998",
        "tle_line2": "2 34040  73.9556  48.4352 0343396 359.6695   0.4140 13.68391604837441"
      },
      "geometry": {
        "type": "Point",
        "coordinates": [
          -129.62006124853994,
          -15.011991262695867
        ]
      }
    },
    {
      "type": "Feature",
      "properties": {
        "norad_id": 34045,
        "name": "COSMOS 2251 DEB",
        "group": "cosmos-2251-debris",
        "lat": -40.164361012544646,
        "lon": -85.19210289302895,
        "alt_km": 772.5084034505016,
        "timestamp": "2025-12-24T18:55:56.465416+00:00",
        "meta_object_name": "COSMOS 2251 DEB",
        "meta_object_id": "1993-036JG",
        "meta_epoch": "2025-12-24T06:16:14.413152",
        "meta_mean_motion": 14.34075138,
        "meta_eccentricity": 0.00261409,
        "meta_inclination": 74.0396,
        "meta_ra_of_asc_node": 289.7501,
        "meta_arg_of_pericenter": 10.1056,
        "meta_mean_anomaly": 105.5067,
        "meta_ephemeris_type": 0,
        "meta_classification_type": "U",
        "meta_norad_cat_id": 34045,
        "meta_element_set_no": 999,
        "meta_rev_at_epoch": 88198,
        "meta_bstar": 0.00010128207,
        "meta_mean_motion_dot": 2.58e-06,
        "meta_mean_motion_ddot": 0,
        "tle_line1": "1 34045U 93036JG  25358.26127793  .00000258  00000+0  10128-3 0  9996",
        "tle_line2": "2 34045  74.0396 289.7501 0026140  10.1056 105.5067 14.34075138881989"
      },
      "geometry": {
        "type": "Point",
        "coordinates": [
          -85.19210289302895,
          -40.164361012544646
        ]
      }
    },
    {
      "type": "Feature",
      "properties": {
        "norad_id": 34046,
        "name": "COSMOS 2251 DEB",
        "group": "cosmos-2251-debris",
        "lat": 49.919399822353526,
        "lon": 148.0920370603139,
        "alt_km": 704.6308823337286,
        "timestamp": "2025-12-24T18:55:56.465427+00:00",
        "meta_object_name": "COSMOS 2251 DEB",
        "meta_object_id": "1993-036JH",
        "meta_epoch": "2025-12-23T09:52:11.144640",
        "meta_mean_motion": 14.46554908,
        "meta_eccentricity": 0.00745071,
        "meta_inclination": 74.0395,
        "meta_ra_of_asc_node": 350.5457,
        "meta_arg_of_pericenter": 70.7911,
        "meta_mean_anomaly": 84.5304,
        "meta_ephemeris_type": 0,
        "meta_classification_type": "U",
        "meta_norad_cat_id": 34046,
        "meta_element_set_no": 999,
        "meta_rev_at_epoch": 87980,
        "meta_bstar": 0.0012677782,
        "meta_mean_motion_dot": 4.705e-05,
        "meta_mean_motion_ddot": 0,
        "tle_line1": "1 34046U 93036JH  25357.41124010  .00004705  00000+0  12678-2 0  9994",
        "tle_line2": "2 34046  74.0395 350.5457 0074507  70.7911  84.5304 14.46554908879806"
      },
      "geometry": {
        "type": "Point",
        "coordinates": [
          148.0920370603139,
          49.919399822353526
        ]
      }
    },
    {
      "type": "Feature",
      "properties": {
        "norad_id": 34050,
        "name": "COSMOS 2251 DEB",
        "group": "cosmos-2251-debris",
        "lat": -20.096916307645994,
        "lon": -16.607156853655272,
        "alt_km": 858.9937828787906,
        "timestamp": "2025-12-24T18:55:56.465437+00:00",
        "meta_object_name": "COSMOS 2251 DEB",
        "meta_object_id": "1993-036JM",
        "meta_epoch": "2025-12-23T10:53:59.277120",
        "meta_mean_motion": 13.9620468,
        "meta_eccentricity": 0.02147715,
        "meta_inclination": 74.0882,
        "meta_ra_of_asc_node": 351.6725,
        "meta_arg_of_pericenter": 53.2494,
        "meta_mean_anomaly": 62.2497,
        "meta_ephemeris_type": 0,
        "meta_classification_type": "U",
        "meta_norad_cat_id": 34050,
        "meta_element_set_no": 999,
        "meta_rev_at_epoch": 85581,
        "meta_bstar": 0.00070488954,
        "meta_mean_motion_dot": 1.154e-05,
        "meta_mean_motion_ddot": 0,
        "tle_line1": "1 34050U 93036JM  25357.45415830  .00001154  00000+0  70489-3 0  9996",
        "tle_line2": "2 34050  74.0882 351.6725 0214771  53.2494  62.2497 13.96204680855817"
      },
      "geometry": {
        "type": "Point",
        "coordinates": [
          -16.607156853655272,
          -20.096916307645994
        ]
      }
    },
    {
      "type": "Feature",
      "properties": {
        "norad_id": 34053,
        "name": "COSMOS 2251 DEB",
        "group": "cosmos-2251-debris",
        "lat": 71.64687335352845,
        "lon": -76.33962360312432,
        "alt_km": 958.119213631072,
        "timestamp": "2025-12-24T18:55:56.465447+00:00",
        "meta_object_name": "COSMOS 2251 DEB",
        "meta_object_id": "1993-036JQ",
        "meta_epoch": "2025-12-24T00:45:47.385216",
        "meta_mean_motion": 13.49177905,
        "meta_eccentricity": 0.04228288,
        "meta_inclination": 73.843,
        "meta_ra_of_asc_node": 223.9749,
        "meta_arg_of_pericenter": 10.6711,
        "meta_mean_anomaly": 350.3023,
        "meta_ephemeris_type": 0,
        "meta_classification_type": "U",
        "meta_norad_cat_id": 34053,
        "meta_element_set_no": 999,
        "meta_rev_at_epoch": 82836,
        "meta_bstar": 0.00057390739,
        "meta_mean_motion_dot": 6.05e-06,
        "meta_mean_motion_ddot": 0,
        "tle_line1": "1 34053U 93036JQ  25358.03179844  .00000605  00000+0  57391-3 0  9993",
        "tle_line2": "2 34053  73.8430 223.9749 0422828  10.6711 350.3023 13.49177905828369"
      },
      "geometry": {
        "type": "Point",
        "coordinates": [
          -76.33962360312432,
          71.64687335352845
        ]
      }
    }
  ]
}